{
  "type": "FeatureCollection",
  "features": [
    {
      "type": "Feature",
      "id": 10703,
      "geometry": {
        "type": "Polygon",
        "coordinates": [
          [
            [
              -82.75459092690046,
              27.968964978733844
            ],
            [
              -82.75459128764969,
              27.969222956905266
            ],
            [
              -82.75615579613414,
              27.969225627705836
            ],
            [
              -82.75615468140218,
              27.96896179276544
            ],
            [
              -82.75459092690046,
              27.968964978733844
            ]
          ]
        ]
      },
      "properties": {
        "OBJECTID": 10703,
        "ZONING": "OS/R",
        "ZONING_DESC": "Open Space/Recreation",
        "SPECIAL": null
      }
    },
    {
      "type": "Feature",
      "id": 10818,
      "geometry": {
        "type": "Polygon",
        "coordinates": [
          [
            [
              -82.75553429055175,
              27.975873246673032
            ],
            [
              -82.75655253050408,
              27.97587628199719
            ],
            [
              -82.75655614038419,
              27.976701438778637
            ],
            [
              -82.7565569549266,
              27.976784377519735
            ],
            [
              -82.75802477665421,
              27.97678568748942
            ],
            [
              -82.75802383393705,
              27.976869799056356
            ],
            [
              -82.75802529912505,
              27.978647020071065
            ],
            [
              -82.75717487799834,
              27.97864632728373
            ],
            [
              -82.75717571584143,
              27.97897645219558
            ],
            [
              -82.75718078969167,
              27.978976401707765
            ],
            [
              -82.75870655138557,
              27.97898370260967
            ],
            [
              -82.75880318175228,
              27.9789838409846
            ],
            [
              -82.75880337691747,
              27.980116592150367
            ],
            [
              -82.7587068026197,
              27.98011662132332
            ],
            [
              -82.75870690959204,
              27.980600737645485
            ],
            [
              -82.75870679772858,
              27.98076528452996
            ],
            [
              -82.75870670713539,
              27.981346935619833
            ],
            [
              -82.75880063464042,
              27.98134706090131
            ],
            [
              -82.75889220181527,
              27.981347180190937
            ],
            [
              -82.760796921879,
              27.981354271968268
            ],
            [
              -82.76079604253634,
              27.981838151688784
            ],
            [
              -82.76089042727459,
              27.98183848235994
            ],
            [
              -82.76194082185964,
              27.9818421428448
            ],
            [
              -82.76143542344877,
              27.980862282718064
            ],
            [
              -82.76146248814526,
              27.98086254257761
            ],
            [
              -82.7565937404558,
              27.971831950862352
            ],
            [
              -82.75673523146624,
              27.97108078037189
            ],
            [
              -82.7545938916816,
              27.971086949268393
            ],
            [
              -82.7545943795107,
              27.971641148754156
            ],
            [
              -82.75459721076162,
              27.973464597037815
            ],
            [
              -82.75459973613795,
              27.97529625728811
            ],
            [
              -82.75459987958729,
              27.975395154759315
            ],
            [
              -82.75475600683066,
              27.97539456810115
            ],
            [
              -82.75553730419422,
              27.975396525742777
            ],
            [
              -82.75553429055175,
              27.975873246673032
            ]
          ]
        ]
      },
      "properties": {
        "OBJECTID": 10818,
        "ZONING": "I",
        "ZONING_DESC": "Institutional",
        "SPECIAL": null
      }
    },
    {
      "type": "Feature",
      "id": 10961,
      "geometry": {
        "type": "Polygon",
        "coordinates": [
          [
            [
              -82.75459019278838,
              27.968438582774656
            ],
            [
              -82.75444014799072,
              27.96843882443214
            ],
            [
              -82.75404038125083,
              27.96843991580607
            ],
            [
              -82.7540404515661,
              27.96849461962365
            ],
            [
              -82.75364060495093,
              27.96849551175243
            ],
            [
              -82.7535457331955,
              27.968495687552196
            ],
            [
              -82.75354556576265,
              27.96843852617395
            ],
            [
              -82.75345033060123,
              27.96843817510154
            ],
            [
              -82.75306262012167,
              27.968437385631425
            ],
            [
              -82.75267800448997,
              27.968436598893668
            ],
            [
              -82.75258438400179,
              27.968436346674828
            ],
            [
              -82.75258938409205,
              27.968451955804873
            ],
            [
              -82.75259806289928,
              27.968483452908846
            ],
            [
              -82.75260593258409,
              27.968520209009217
            ],
            [
              -82.75261211848176,
              27.968558477687623
            ],
            [
              -82.75261696231506,
              27.968590967631865
            ],
            [
              -82.75261942096134,
              27.968635794455746
            ],
            [
              -82.75262107454752,
              27.968957141740304
            ],
            [
              -82.75459092690046,
              27.968964978733844
            ],
            [
              -82.75459019278838,
              27.968438582774656
            ]
          ]
        ]
      },
      "properties": {
        "OBJECTID": 10961,
        "ZONING": "MDR",
        "ZONING_DESC": "Medium Density Residential",
        "SPECIAL": null
      }
    },
    {
      "type": "Feature",
      "id": 10962,
      "geometry": {
        "type": "Polygon",
        "coordinates": [
          [
            [
              -82.74635162942104,
              27.96863293358026
            ],
            [
              -82.74664638373403,
              27.96863389538363
            ],
            [
              -82.74718079661388,
              27.96863563171633
            ],
            [
              -82.74782824265651,
              27.968637736176706
            ],
            [
              -82.7473707714673,
              27.968086459246543
            ],
            [
              -82.74814199756437,
              27.96808917127223
            ],
            [
              -82.74912102296481,
              27.969265186972027
            ],
            [
              -82.74920994367896,
              27.969371996087496
            ],
            [
              -82.74995961755052,
              27.968885562355
            ],
            [
              -82.7502095567848,
              27.96872155350266
            ],
            [
              -82.75044082488229,
              27.96857566210247
            ],
            [
              -82.75056652177486,
              27.968591721097035
            ],
            [
              -82.75083561266457,
              27.968617812614838
            ],
            [
              -82.75103879044264,
              27.96886325625224
            ],
            [
              -82.751126403093,
              27.968972487833
            ],
            [
              -82.75151761983693,
              27.96871757898142
            ],
            [
              -82.75161562294207,
              27.96883395721331
            ],
            [
              -82.75164119729591,
              27.968866718365025
            ],
            [
              -82.75166257128889,
              27.96889908194798
            ],
            [
              -82.75168312469303,
              27.96893652230083
            ],
            [
              -82.75169619188325,
              27.968966391955075
            ],
            [
              -82.75178895212821,
              27.968946285412667
            ],
            [
              -82.75218029497822,
              27.96886119512047
            ],
            [
              -82.75217998509048,
              27.968734879549935
            ],
            [
              -82.75252099222752,
              27.968622558852793
            ],
            [
              -82.75261696231506,
              27.968590967631865
            ],
            [
              -82.75261211848176,
              27.968558477687623
            ],
            [
              -82.75260593258409,
              27.968520209009217
            ],
            [
              -82.75259806289928,
              27.968483452908846
            ],
            [
              -82.75258938409205,
              27.968451955804873
            ],
            [
              -82.75258438400179,
              27.968436346674828
            ],
            [
              -82.75267800448997,
              27.968436598893668
            ],
            [
              -82.75306262012167,
              27.968437385631425
            ],
            [
              -82.75345033060123,
              27.96843817510154
            ],
            [
              -82.75354556576265,
              27.96843852617395
            ],
            [
              -82.7535457331955,
              27.968495687552196
            ],
            [
              -82.75364060495093,
              27.96849551175243
            ],
            [
              -82.7540404515661,
              27.96849461962365
            ],
            [
              -82.75404038125083,
              27.96843991580607
            ],
            [
              -82.75444014799072,
              27.96843882443214
            ],
            [
              -82.75459019278838,
              27.968438582774656
            ],
            [
              -82.75459002689549,
              27.96831861109934
            ],
            [
              -82.75458954848602,
              27.96797680225052
            ],
            [
              -82.75615234855894,
              27.96798060798319
            ],
            [
              -82.75615685785826,
              27.96832039492703
            ],
            [
              -82.75615965951259,
              27.96853157115709
            ],
            [
              -82.75628418494442,
              27.968531992175954
            ],
            [
              -82.75974656590195,
              27.968542930806915
            ],
            [
              -82.75993243597048,
              27.968543599038952
            ],
            [
              -82.76146255054643,
              27.968549105817587
            ],
            [
              -82.76146228971552,
              27.968627914010227
            ],
            [
              -82.76194668469257,
              27.968621038171364
            ],
            [
              -82.76194691938963,
              27.968654446628417
            ],
            [
              -82.76243449752775,
              27.968651740295897
            ],
            [
              -82.76243431710438,
              27.968626073970132
            ],
            [
              -82.7629656966035,
              27.968626992446193
            ],
            [
              -82.7629622612052,
              27.968004246790052
            ],
            [
              -82.76348765102021,
              27.96800628838678
            ],
            [
              -82.7634895783194,
              27.968143206784244
            ],
            [
              -82.763491326622,
              27.968556605758582
            ],
            [
              -82.76390331224125,
              27.96855742687507
            ],
            [
              -82.76409320776908,
              27.968557904706984
            ],
            [
              -82.76484402477934,
              27.968560837609775
            ],
            [
              -82.76503250943455,
              27.968560719197242
            ],
            [
              -82.76569165262369,
              27.96856431327006
            ],
            [
              -82.76587711366282,
              27.968562912902968
            ],
            [
              -82.76621885632561,
              27.96856436079569
            ],
            [
              -82.76673727738209,
              27.968568840811617
            ],
            [
              -82.7670785789365,
              27.968570145547694
            ],
            [
              -82.76707795169926,
              27.968411326470395
            ],
            [
              -82.7670768696456,
              27.968157585811195
            ],
            [
              -82.76707667514525,
              27.968110826439013
            ],
            [
              -82.76707564905297,
              27.96802006170126
            ],
            [
              -82.76736662535845,
              27.96802117525288
            ],
            [
              -82.76736578162974,
              27.967929931240885
            ],
            [
              -82.76736257480565,
              27.96759618022037
            ],
            [
              -82.76715780867733,
              27.967595418909912
            ],
            [
              -82.76705716026895,
              27.967595072235646
            ],
            [
              -82.7670542123731,
              27.967441084784973
            ],
            [
              -82.76389681894908,
              27.967435738467326
            ],
            [
              -82.7634789467503,
              27.96743419103094
            ],
            [
              -82.76194478730555,
              27.96742846084896
            ],
            [
              -82.76195431543081,
              27.968000783059995
            ],
            [
              -82.7599342062859,
              27.96799378454454
            ],
            [
              -82.7599259642647,
              27.96742362606866
            ],
            [
              -82.75370933039511,
              27.967401264081975
            ],
            [
              -82.75371623332687,
              27.96797195320766
            ],
            [
              -82.75180674175019,
              27.967967242399993
            ],
            [
              -82.75181106989452,
              27.967420222525522
            ],
            [
              -82.75069611140553,
              27.967416100421133
            ],
            [
              -82.75038617233949,
              27.967415034242784
            ],
            [
              -82.75038150776953,
              27.967096011482433
            ],
            [
              -82.7496995875051,
              27.967093666383654
            ],
            [
              -82.74960857778291,
              27.96709350798927
            ],
            [
              -82.74960607597632,
              27.96694224256898
            ],
            [
              -82.74951143373906,
              27.966941762796907
            ],
            [
              -82.74861307735505,
              27.96693866268034
            ],
            [
              -82.74852014747422,
              27.966938596127616
            ],
            [
              -82.74852081143223,
              27.96697958054999
            ],
            [
              -82.7484278318193,
              27.966979087378824
            ],
            [
              -82.74691027329676,
              27.9669712321024
            ],
            [
              -82.74690656214311,
              27.966558772945174
            ],
            [
              -82.74625893593415,
              27.966553355911355
            ],
            [
              -82.74618036940362,
              27.966552692809113
            ],
            [
              -82.74618721109887,
              27.96720181570067
            ],
            [
              -82.74619504002895,
              27.967944479613507
            ],
            [
              -82.74541911487012,
              27.96794113600846
            ],
            [
              -82.74535032127957,
              27.96794085354765
            ],
            [
              -82.74535181687479,
              27.968078330729014
            ],
            [
              -82.74535429523941,
              27.9684633831041
            ],
            [
              -82.74553087221618,
              27.9684641202365
            ],
            [
              -82.74576320883644,
              27.968465089145436
            ],
            [
              -82.74604201216495,
              27.96846625150194
            ],
            [
              -82.74620052616464,
              27.96846491367618
            ],
            [
              -82.74620229835344,
              27.968632979201285
            ],
            [
              -82.74635162942104,
              27.96863293358026
            ]
          ],
          [
            [
              -82.75183647468887,
              27.96839043440762
            ],
            [
              -82.75166378615613,
              27.968101308000573
            ],
            [
              -82.75164067825608,
              27.96806188281562
            ],
            [
              -82.75219610993588,
              27.968064849284307
            ],
            [
              -82.75227228354419,
              27.968179162626864
            ],
            [
              -82.75186802921672,
              27.968445320839866
            ],
            [
              -82.75183647468887,
              27.96839043440762
            ]
          ],
          [
            [
              -82.74709794298624,
              27.967225127446056
            ],
            [
              -82.74709942795886,
              27.967376386744604
            ],
            [
              -82.74634676195302,
              27.967370784279993
            ],
            [
              -82.74634532370251,
              27.967219515681336
            ],
            [
              -82.74709794298624,
              27.967225127446056
            ]
          ]
        ]
      },
      "properties": {
        "OBJECTID": 10962,
        "ZONING": "C",
        "ZONING_DESC": "Commercial",
        "SPECIAL": null
      }
    },
    {
      "type": "Feature",
      "id": 11130,
      "geometry": {
        "type": "Polygon",
        "coordinates": [
          [
            [
              -82.76288669751729,
              27.969820564801182
            ],
            [
              -82.7619672239544,
              27.969817820921723
            ],
            [
              -82.76196708269251,
              27.968991324657885
            ],
            [
              -82.76192059224033,
              27.968991246422625
            ],
            [
              -82.76147757800362,
              27.968989836726514
            ],
            [
              -82.76147675682255,
              27.96882481111012
            ],
            [
              -82.7614616418897,
              27.96882474315968
            ],
            [
              -82.76146228971552,
              27.968627914010227
            ],
            [
              -82.76146255054643,
              27.968549105817587
            ],
            [
              -82.75993243597048,
              27.968543599038952
            ],
            [
              -82.75974656590195,
              27.968542930806915
            ],
            [
              -82.75628418494442,
              27.968531992175954
            ],
            [
              -82.75615965951259,
              27.96853157115709
            ],
            [
              -82.75615685785826,
              27.96832039492703
            ],
            [
              -82.75459002689549,
              27.96831861109934
            ],
            [
              -82.75459019278838,
              27.968438582774656
            ],
            [
              -82.75459092690046,
              27.968964978733844
            ],
            [
              -82.75615468140218,
              27.96896179276544
            ],
            [
              -82.75615579613414,
              27.969225627705836
            ],
            [
              -82.75459128764969,
              27.969222956905266
            ],
            [
              -82.75459092690046,
              27.968964978733844
            ],
            [
              -82.75262107454752,
              27.968957141740304
            ],
            [
              -82.75261942096134,
              27.968635794455746
            ],
            [
              -82.75261696231506,
              27.968590967631865
            ],
            [
              -82.75252099222752,
              27.968622558852793
            ],
            [
              -82.75217998509048,
              27.968734879549935
            ],
            [
              -82.75218029497822,
              27.96886119512047
            ],
            [
              -82.75178895212821,
              27.968946285412667
            ],
            [
              -82.75169619188325,
              27.968966391955075
            ],
            [
              -82.75168312469303,
              27.96893652230083
            ],
            [
              -82.75166257128889,
              27.96889908194798
            ],
            [
              -82.75164119729591,
              27.968866718365025
            ],
            [
              -82.75161562294207,
              27.96883395721331
            ],
            [
              -82.75151761983693,
              27.96871757898142
            ],
            [
              -82.751126403093,
              27.968972487833
            ],
            [
              -82.75041864730997,
              27.969433642788875
            ],
            [
              -82.75016869377224,
              27.969596505173023
            ],
            [
              -82.74916883761247,
              27.970247965804028
            ],
            [
              -82.74908355939552,
              27.97014563974187
            ],
            [
              -82.74858516195695,
              27.970472431217626
            ],
            [
              -82.74866880280321,
              27.97057376034026
            ],
            [
              -82.74817104869,
              27.970898063483535
            ],
            [
              -82.74808676148199,
              27.970799219125993
            ],
            [
              -82.74783756012603,
              27.97096261467502
            ],
            [
              -82.74792088699023,
              27.971061052016058
            ],
            [
              -82.74767046851466,
              27.971224203924553
            ],
            [
              -82.74758808947696,
              27.97112568458004
            ],
            [
              -82.74728580877526,
              27.970762693818802
            ],
            [
              -82.7470499640557,
              27.97091876296319
            ],
            [
              -82.74735730726162,
              27.97127750088329
            ],
            [
              -82.74763514550395,
              27.971607205432466
            ],
            [
              -82.7483131612762,
              27.971607405960782
            ],
            [
              -82.74957449507848,
              27.97161314520609
            ],
            [
              -82.74957426396247,
              27.97153176874129
            ],
            [
              -82.74957427413653,
              27.971530593784333
            ],
            [
              -82.74957431431541,
              27.971529642454644
            ],
            [
              -82.74957436971474,
              27.9715286874325
            ],
            [
              -82.74957444647633,
              27.971527735001143
            ],
            [
              -82.74957453952464,
              27.971526786090564
            ],
            [
              -82.74957465391023,
              27.97152583616137
            ],
            [
              -82.74957478356619,
              27.97152488975847
            ],
            [
              -82.74957493457818,
              27.97152394504402
            ],
            [
              -82.74957510185816,
              27.97152300114332
            ],
            [
              -82.7495752905191,
              27.971522062540423
            ],
            [
              -82.74957549443792,
              27.971521125659155
            ],
            [
              -82.74957572074159,
              27.971520192265462
            ],
            [
              -82.74957596230935,
              27.971519261495757
            ],
            [
              -82.74957622220903,
              27.971518336040468
            ],
            [
              -82.74957650044061,
              27.971517415899605
            ],
            [
              -82.74957679800168,
              27.971516498360568
            ],
            [
              -82.74957711389469,
              27.971515586135936
            ],
            [
              -82.74957744507049,
              27.971514679242375
            ],
            [
              -82.74957779557583,
              27.97151377495061
            ],
            [
              -82.74957816342166,
              27.971512879588182
            ],
            [
              -82.74957855060948,
              27.971511988632336
            ],
            [
              -82.74957895410272,
              27.971511103904284
            ],
            [
              -82.74957937492397,
              27.971510226300914
            ],
            [
              -82.74957981205061,
              27.97150935492536
            ],
            [
              -82.74958026750916,
              27.971508488864245
            ],
            [
              -82.74958073928556,
              27.97150763083564
            ],
            [
              -82.74958122941258,
              27.971506780828506
            ],
            [
              -82.749581733831,
              27.971505939767322
            ],
            [
              -82.74958225252831,
              27.971505105847424
            ],
            [
              -82.7495827915965,
              27.9715042781332
            ],
            [
              -82.74958334700126,
              27.971503461158562
            ],
            [
              -82.74958391465847,
              27.971502652238602
            ],
            [
              -82.74958450066626,
              27.971501851340093
            ],
            [
              -82.74958510199428,
              27.97150106118671
            ],
            [
              -82.74958571964021,
              27.971500279065854
            ],
            [
              -82.74958635261255,
              27.971499508592476
            ],
            [
              -82.74958700088645,
              27.971498746157135
            ],
            [
              -82.74958766143149,
              27.97149799448355
            ],
            [
              -82.74958833831312,
              27.971497253549533
            ],
            [
              -82.74958902949858,
              27.97149652336617
            ],
            [
              -82.7495897339591,
              27.97149580213431
            ],
            [
              -82.74959045476871,
              27.971495093446716
            ],
            [
              -82.7495911898884,
              27.971494396412115
            ],
            [
              -82.74959193524651,
              27.971493710150316
            ],
            [
              -82.7495926959311,
              27.971493035535993
            ],
            [
              -82.7495934719484,
              27.97149237347145
            ],
            [
              -82.74959425719396,
              27.971491723087624
            ],
            [
              -82.7495950577785,
              27.971491086155936
            ],
            [
              -82.74959586860146,
              27.971490459997053
            ],
            [
              -82.74959669171429,
              27.971489847306938
            ],
            [
              -82.7495975271045,
              27.97148924628089
            ],
            [
              -82.74959837478455,
              27.971488658723615
            ],
            [
              -82.7495992317054,
              27.971488084651728
            ],
            [
              -82.75090385671517,
              27.97063174775451
            ],
            [
              -82.7509078657109,
              27.970629156792818
            ],
            [
              -82.75091234494384,
              27.970626368350043
            ],
            [
              -82.7509168764603,
              27.970623644593275
            ],
            [
              -82.75092146234917,
              27.970620993632558
            ],
            [
              -82.75092609752878,
              27.97061841549564
            ],
            [
              -82.75093078300915,
              27.970615909274596
            ],
            [
              -82.75093551776779,
              27.970613474072607
            ],
            [
              -82.75094030082575,
              27.970611115309346
            ],
            [
              -82.75094512706384,
              27.970608827598408
            ],
            [
              -82.75094999957487,
              27.970606617239618
            ],
            [
              -82.7509549142934,
              27.97060448425514
            ],
            [
              -82.75095986915551,
              27.97060242414436
            ],
            [
              -82.75096486421123,
              27.970600444126
            ],
            [
              -82.75096989841914,
              27.97059854059624
            ],
            [
              -82.75097496873654,
              27.970596714474073
            ],
            [
              -82.75098007517589,
              27.97059496756421
            ],
            [
              -82.7509852126742,
              27.970593302601362
            ],
            [
              -82.75099038424929,
              27.970591715057218
            ],
            [
              -82.7509955848319,
              27.97059020676414
            ],
            [
              -82.75100081647975,
              27.970588781320487
            ],
            [
              -82.75100497524662,
              27.970587710954707
            ],
            [
              -82.75101025465236,
              27.97058643053352
            ],
            [
              -82.7510155569863,
              27.97058523210374
            ],
            [
              -82.75102088022203,
              27.970584116578834
            ],
            [
              -82.75102622639224,
              27.97058308394769
            ],
            [
              -82.75103159142529,
              27.970582133330154
            ],
            [
              -82.75103697635627,
              27.970581267427693
            ],
            [
              -82.75104237405827,
              27.970580484474453
            ],
            [
              -82.75104779062315,
              27.970579783534816
            ],
            [
              -82.75105321692875,
              27.970579168268106
            ],
            [
              -82.7510586560179,
              27.97057863775531
            ],
            [
              -82.75106410279636,
              27.97057819021947
            ],
            [
              -82.751069558293,
              27.97057782745975
            ],
            [
              -82.7510750214977,
              27.97057755038403
            ],
            [
              -82.75108048833886,
              27.97057735811218
            ],
            [
              -82.7510859577876,
              27.97057724884499
            ],
            [
              -82.75109142884011,
              27.97057722439278
            ],
            [
              -82.7512848001809,
              27.97057711974819
            ],
            [
              -82.75128612430989,
              27.971539270115844
            ],
            [
              -82.7512862314784,
              27.971620908927306
            ],
            [
              -82.75145293015645,
              27.97162166254756
            ],
            [
              -82.7545943795107,
              27.971641148754156
            ],
            [
              -82.7545938916816,
              27.971086949268393
            ],
            [
              -82.75673523146624,
              27.97108078037189
            ],
            [
              -82.75728301430122,
              27.970963156765993
            ],
            [
              -82.75803581539088,
              27.97082230768737
            ],
            [
              -82.75869098029153,
              27.970821974822623
            ],
            [
              -82.75870077584848,
              27.971748390079696
            ],
            [
              -82.76123648449958,
              27.97174853741125
            ],
            [
              -82.76288329726945,
              27.971760269880374
            ],
            [
              -82.76288669751729,
              27.969820564801182
            ]
          ],
          [
            [
              -82.76281948601834,
              27.970182796659397
            ],
            [
              -82.76279757249439,
              27.97026714817659
            ],
            [
              -82.76278498759392,
              27.9703141101638
            ],
            [
              -82.76277332686405,
              27.970361257428483
            ],
            [
              -82.76276259735693,
              27.970408580907996
            ],
            [
              -82.76275279690779,
              27.97045606166455
            ],
            [
              -82.7627439345634,
              27.97050368521004
            ],
            [
              -82.76273600822242,
              27.970551441630118
            ],
            [
              -82.76272902079556,
              27.970599311056404
            ],
            [
              -82.76272297730227,
              27.97064728443739
            ],
            [
              -82.76272189748191,
              27.97065676361624
            ],
            [
              -82.76264864647946,
              27.970668773383256
            ],
            [
              -82.76258152616981,
              27.970644047502624
            ],
            [
              -82.76246835870529,
              27.970630925117742
            ],
            [
              -82.76233598973953,
              27.97060639014124
            ],
            [
              -82.76233255816818,
              27.97060201726752
            ],
            [
              -82.76232903855541,
              27.97059769902437
            ],
            [
              -82.76232544003561,
              27.970593433556413
            ],
            [
              -82.7623217555325,
              27.970589226317138
            ],
            [
              -82.76231798708503,
              27.970585078197587
            ],
            [
              -82.76231414077864,
              27.970580987359305
            ],
            [
              -82.76231021257334,
              27.970576957434204
            ],
            [
              -82.76230620653448,
              27.97057298839972
            ],
            [
              -82.76230212470114,
              27.97056908114696
            ],
            [
              -82.76229796404958,
              27.970565239302175
            ],
            [
              -82.76229372762258,
              27.970561461946115
            ],
            [
              -82.76228942051452,
              27.97055775085535
            ],
            [
              -82.76228504172809,
              27.970554108742483
            ],
            [
              -82.76228059022793,
              27.970550532906113
            ],
            [
              -82.76227606704938,
              27.970547026047683
            ],
            [
              -82.76227147933226,
              27.9705435917371
            ],
            [
              -82.76226682198849,
              27.970540229100216
            ],
            [
              -82.76226210213247,
              27.970536938097577
            ],
            [
              -82.76225731470151,
              27.970533721464356
            ],
            [
              -82.76225246883006,
              27.97053057734521
            ],
            [
              -82.76224755946807,
              27.97052751028001
            ],
            [
              -82.76224259068094,
              27.97052452024619
            ],
            [
              -82.76223756349131,
              27.970521608140487
            ],
            [
              -82.76223248195826,
              27.97051877303804
            ],
            [
              -82.76222734508447,
              27.970516017651487
            ],
            [
              -82.7622221518599,
              27.970513342888832
            ],
            [
              -82.76221690735996,
              27.97051074781952
            ],
            [
              -82.76221161464002,
              27.97050823332903
            ],
            [
              -82.76220627169909,
              27.970505803940352
            ],
            [
              -82.76220088358714,
              27.970503455113587
            ],
            [
              -82.76219544933859,
              27.970501194073115
            ],
            [
              -82.7621899719454,
              27.97049901268098
            ],
            [
              -82.76218445248733,
              27.970496919954932
            ],
            [
              -82.76217889297166,
              27.970494912274347
            ],
            [
              -82.76217329340474,
              27.970492990541604
            ],
            [
              -82.76216765785198,
              27.97049115473413
            ],
            [
              -82.762161986345,
              27.970489409363708
            ],
            [
              -82.76215628293022,
              27.970487751700706
            ],
            [
              -82.76215054454585,
              27.970486179957362
            ],
            [
              -82.76214478139346,
              27.97048469949144
            ],
            [
              -82.76213898431953,
              27.97048330945125
            ],
            [
              -82.76213316347481,
              27.970482007975814
            ],
            [
              -82.76212731785567,
              27.970480796875414
            ],
            [
              -82.76212144948211,
              27.97047967433416
            ],
            [
              -82.76211556145385,
              27.97047864755388
            ],
            [
              -82.7621096506711,
              27.970477709332705
            ],
            [
              -82.76210372426735,
              27.970476862338238
            ],
            [
              -82.76209778327157,
              27.970476108369592
            ],
            [
              -82.76209182769011,
              27.970475448329083
            ],
            [
              -82.76208585646853,
              27.97047487680824
            ],
            [
              -82.76207988083742,
              27.97047440096397
            ],
            [
              -82.76207389263422,
              27.9704740163295
            ],
            [
              -82.76206789898606,
              27.970473724670146
            ],
            [
              -82.76206189989924,
              27.970473526888295
            ],
            [
              -82.76205589841646,
              27.970473422064657
            ],
            [
              -82.7620537669466,
              27.97047340679881
            ],
            [
              -82.76174565470491,
              27.970472142356943
            ],
            [
              -82.7617336494561,
              27.970272197907498
            ],
            [
              -82.76171816035539,
              27.970272283659657
            ],
            [
              -82.76171852844887,
              27.97020747533337
            ],
            [
              -82.76165196507316,
              27.97002072431601
            ],
            [
              -82.76162920058249,
              27.969761572824233
            ],
            [
              -82.76162758305638,
              27.969465092775415
            ],
            [
              -82.76173102117599,
              27.96924388078359
            ],
            [
              -82.76192186018245,
              27.969247548996577
            ],
            [
              -82.76192510103633,
              27.96989449217157
            ],
            [
              -82.76281792104814,
              27.969898302721596
            ],
            [
              -82.76281948601834,
              27.970182796659397
            ]
          ]
        ]
      },
      "properties": {
        "OBJECTID": 11130,
        "ZONING": "LMDR",
        "ZONING_DESC": "Low Medium Density Residential",
        "SPECIAL": null
      }
    }
  ]
}
