{
  "type": "FeatureCollection",
  "features": [
    {
      "type": "Feature",
      "id": 281306,
      "geometry": {
        "type": "Polygon",
        "coordinates": [
          [
            [
              -82.76089290593065,
              27.979980195965013
            ],
            [
              -82.76282105350319,
              27.979987033892556
            ],
            [
              -82.76282161783683,
              27.979528983926905
            ],
            [
              -82.76283710891236,
              27.979528991868293
            ],
            [
              -82.76283693626446,
              27.97904233602169
            ],
            [
              -82.76283689630975,
              27.97899967625692
            ],
            [
              -82.76078102310399,
              27.978989244013167
            ],
            [
              -82.76037748381002,
              27.978987052655132
            ],
            [
              -82.76039869242393,
              27.979027926920267
            ],
            [
              -82.76089290593065,
              27.979980195965013
            ]
          ]
        ]
      },
      "properties": {
        "OBJECTID": 281306,
        "PARCELID": "122915701822000901",
        "STRAP": "152912701822000901",
        "SITE_ADDRESS": null,
        "SITE_CITY": null,
        "SITE_STATE": null,
        "SITE_ZIP": null,
        "LAND_USE_CODE": "38"
      }
    },
    {
      "type": "Feature",
      "id": 332342,
      "geometry": {
        "type": "Polygon",
        "coordinates": [
          [
            [
              -82.75772027270048,
              27.978973688028212
            ],
            [
              -82.75802235580676,
              27.978975202816446
            ],
            [
              -82.75802235498246,
              27.978973195025524
            ],
            [
              -82.75802222821675,
              27.978838326913593
            ],
            [
              -82.75802205143354,
              27.97864193300034
            ],
            [
              -82.75717339108338,
              27.978641242235096
            ],
            [
              -82.75717165902049,
              27.978641240940295
            ],
            [
              -82.75717209143869,
              27.978832978992752
            ],
            [
              -82.75717209708081,
              27.978834660095814
            ],
            [
              -82.75717240445925,
              27.978970943966097
            ],
            [
              -82.75717756926795,
              27.978970964265784
            ],
            [
              -82.75772027270048,
              27.978973688028212
            ]
          ]
        ]
      },
      "properties": {
        "OBJECTID": 332342,
        "PARCELID": "122915558360010010",
        "STRAP": "152912558360010010",
        "SITE_ADDRESS": null,
        "SITE_CITY": null,
        "SITE_STATE": null,
        "SITE_ZIP": null,
        "LAND_USE_CODE": "10"
      }
    },
    {
      "type": "Feature",
      "id": 404902,
      "geometry": {
        "type": "Polygon",
        "coordinates": [
          [
            [
              -82.75717817514317,
              27.97945575919649
            ],
            [
              -82.75772100424146,
              27.979458808891458
            ],
            [
              -82.75772027511275,
              27.978974469476015
            ],
            [
              -82.75772027270048,
              27.978973688028212
            ],
            [
              -82.75717756926795,
              27.978970964265784
            ],
            [
              -82.75717817273471,
              27.979454977748652
            ],
            [
              -82.75717817514317,
              27.97945575919649
            ]
          ]
        ]
      },
      "properties": {
        "OBJECTID": 404902,
        "PARCELID": "122915382500010010",
        "STRAP": "152912382500010010",
        "SITE_ADDRESS": "1931 CARROLL ST",
        "SITE_CITY": "CLEARWATER",
        "SITE_STATE": "FL",
        "SITE_ZIP": "33765",
        "LAND_USE_CODE": "48"
      }
    },
    {
      "type": "Feature",
      "id": 729736,
      "geometry": {
        "type": "Polygon",
        "coordinates": [
          [
            [
              -82.75726588469118,
              27.976697202785147
            ],
            [
              -82.75802248562823,
              27.976697895158537
            ],
            [
              -82.75814512821557,
              27.976697217513454
            ],
            [
              -82.75800515607729,
              27.976435001837295
            ],
            [
              -82.75726850169329,
              27.97643417518024
            ],
            [
              -82.75726589570739,
              27.97669616047517
            ],
            [
              -82.75726588469118,
              27.976697202785147
            ]
          ]
        ]
      },
      "properties": {
        "OBJECTID": 729736,
        "PARCELID": "122915558360010011",
        "STRAP": "152912558360010011",
        "SITE_ADDRESS": null,
        "SITE_CITY": null,
        "SITE_STATE": null,
        "SITE_ZIP": null,
        "LAND_USE_CODE": "10"
      }
    },
    {
      "type": "Feature",
      "id": 731805,
      "geometry": {
        "type": "Polygon",
        "coordinates": [
          [
            [
              -82.75726850169329,
              27.97643417518024
            ],
            [
              -82.75800515607729,
              27.976435001837295
            ],
            [
              -82.75736305425204,
              27.975305098864837
            ],
            [
              -82.7554719018403,
              27.97181594365781
            ],
            [
              -82.75474641098776,
              27.971822527905577
            ],
            [
              -82.75475300028513,
              27.975075707277338
            ],
            [
              -82.75634542031906,
              27.97506725676382
            ],
            [
              -82.75636097601245,
              27.97529941514703
            ],
            [
              -82.75637261541445,
              27.97547911079034
            ],
            [
              -82.75659395449682,
              27.97580036749874
            ],
            [
              -82.75681408596951,
              27.97569925953015
            ],
            [
              -82.75695077307378,
              27.975915012956065
            ],
            [
              -82.75715048965313,
              27.975892121419786
            ],
            [
              -82.75727458869082,
              27.976173893358027
            ],
            [
              -82.75726850169329,
              27.97643417518024
            ]
          ]
        ]
      },
      "properties": {
        "OBJECTID": 731805,
        "PARCELID": "122915558360010001",
        "STRAP": "152912558360010001",
        "SITE_ADDRESS": "1000 N HERCULES AVE",
        "SITE_CITY": "CLEARWATER",
        "SITE_STATE": "FL",
        "SITE_ZIP": "33765",
        "LAND_USE_CODE": "89"
      }
    },
    {
      "type": "Feature",
      "id": 739621,
      "geometry": {
        "type": "Polygon",
        "coordinates": [
          [
            [
              -82.75717165902049,
              27.978641240940295
            ],
            [
              -82.75717339108338,
              27.978641242235096
            ],
            [
              -82.75802205143354,
              27.97864193300034
            ],
            [
              -82.7580206168001,
              27.976864714056955
            ],
            [
              -82.75614620223287,
              27.976861782763024
            ],
            [
              -82.75614813547134,
              27.978003248146045
            ],
            [
              -82.75717023164539,
              27.97800954478365
            ],
            [
              -82.75717165902049,
              27.978641240940295
            ]
          ]
        ]
      },
      "properties": {
        "OBJECTID": 739621,
        "PARCELID": "122915558360010009",
        "STRAP": "152912558360010009",
        "SITE_ADDRESS": "1900 GRAND AVE",
        "SITE_CITY": "CLEARWATER",
        "SITE_STATE": "FL",
        "SITE_ZIP": "33765",
        "LAND_USE_CODE": "89"
      }
    },
    {
      "type": "Feature",
      "id": 747976,
      "geometry": {
        "type": "Polygon",
        "coordinates": [
          [
            [
              -82.75888922677632,
              27.978978961512837
            ],
            [
              -82.76037748381002,
              27.978987052655132
            ],
            [
              -82.76030587067412,
              27.97884906494777
            ],
            [
              -82.75847007358315,
              27.975311594538216
            ],
            [
              -82.75658930948161,
              27.971833306817093
            ],
            [
              -82.75590779554845,
              27.971839494724083
            ],
            [
              -82.75590759052683,
              27.971674470189292
            ],
            [
              -82.75474591842782,
              27.97168501221042
            ],
            [
              -82.75474641098776,
              27.971822527905577
            ],
            [
              -82.7554719018403,
              27.97181594365781
            ],
            [
              -82.75736305425204,
              27.975305098864837
            ],
            [
              -82.75800515607729,
              27.976435001837295
            ],
            [
              -82.75814512821557,
              27.976697217513454
            ],
            [
              -82.75802248562823,
              27.976697895158537
            ],
            [
              -82.7580206168001,
              27.976864714056955
            ],
            [
              -82.75802205143354,
              27.97864193300034
            ],
            [
              -82.75802222821675,
              27.978838326913593
            ],
            [
              -82.75802235498246,
              27.978973195025524
            ],
            [
              -82.75802235580676,
              27.978975202816446
            ],
            [
              -82.758703329901,
              27.978978613521033
            ],
            [
              -82.75870312490265,
              27.978841257089474
            ],
            [
              -82.75888911079741,
              27.97884128695605
            ],
            [
              -82.75888922677632,
              27.978978961512837
            ]
          ]
        ]
      },
      "properties": {
        "OBJECTID": 747976,
        "PARCELID": "122915558360010012",
        "STRAP": "152912558360010012",
        "SITE_ADDRESS": "1000 N HERCULES AVE",
        "SITE_CITY": "CLEARWATER",
        "SITE_STATE": "FL",
        "SITE_ZIP": "33765",
        "LAND_USE_CODE": "89"
      }
    },
    {
      "type": "Feature",
      "id": 750043,
      "geometry": {
        "type": "Polygon",
        "coordinates": [
          [
            [
              -82.75654931279976,
              27.975871196312237
            ],
            [
              -82.75655165804125,
              27.976407756015053
            ],
            [
              -82.7568607077345,
              27.976406052447803
            ],
            [
              -82.75659395449682,
              27.97580036749874
            ],
            [
              -82.75637261541445,
              27.97547911079034
            ],
            [
              -82.75636097601245,
              27.97529941514703
            ],
            [
              -82.75634542031906,
              27.97506725676382
            ],
            [
              -82.75475300028513,
              27.975075707277338
            ],
            [
              -82.75475201262682,
              27.975425919481484
            ],
            [
              -82.754965364914,
              27.975426913620666
            ],
            [
              -82.75496558594806,
              27.975591940707737
            ],
            [
              -82.75475157524625,
              27.97559117307376
            ],
            [
              -82.75475135379666,
              27.975659969093265
            ],
            [
              -82.75520118734052,
              27.975661967225644
            ],
            [
              -82.7552014772013,
              27.975867615494018
            ],
            [
              -82.75654931279976,
              27.975871196312237
            ]
          ]
        ]
      },
      "properties": {
        "OBJECTID": 750043,
        "PARCELID": "122915558360010013",
        "STRAP": "152912558360010013",
        "SITE_ADDRESS": null,
        "SITE_CITY": null,
        "SITE_STATE": null,
        "SITE_ZIP": null,
        "LAND_USE_CODE": "40"
      }
    },
    {
      "type": "Feature",
      "id": 770589,
      "geometry": {
        "type": "Polygon",
        "coordinates": [
          [
            [
              -82.75562272538454,
              27.979447930444366
            ],
            [
              -82.7558086126965,
              27.979448823167232
            ],
            [
              -82.75580793462598,
              27.978964749542225
            ],
            [
              -82.75562204712145,
              27.978963855905366
            ],
            [
              -82.75562272538454,
              27.979447930444366
            ]
          ]
        ]
      },
      "properties": {
        "OBJECTID": 770589,
        "PARCELID": "122915382500003500",
        "STRAP": "152912382500003500",
        "SITE_ADDRESS": "1979 CARROLL ST",
        "SITE_CITY": "CLEARWATER",
        "SITE_STATE": "FL",
        "SITE_ZIP": "33765",
        "LAND_USE_CODE": "48"
      }
    },
    {
      "type": "Feature",
      "id": 788209,
      "geometry": {
        "type": "Polygon",
        "coordinates": [
          [
            [
              -82.75525094869936,
              27.979446141548948
            ],
            [
              -82.75543683604283,
              27.97944703838374
            ],
            [
              -82.75562272538454,
              27.979447930444366
            ],
            [
              -82.75562204712145,
              27.978963855905366
            ],
            [
              -82.75543616064904,
              27.978962964718715
            ],
            [
              -82.75525027313817,
              27.978962070579314
            ],
            [
              -82.75525094869936,
              27.979446141548948
            ]
          ]
        ]
      },
      "properties": {
        "OBJECTID": 788209,
        "PARCELID": "122915382500003300",
        "STRAP": "152912382500003300",
        "SITE_ADDRESS": "1985 CARROLL ST",
        "SITE_CITY": "CLEARWATER",
        "SITE_STATE": "FL",
        "SITE_ZIP": "33765",
        "LAND_USE_CODE": "17"
      }
    },
    {
      "type": "Feature",
      "id": 819146,
      "geometry": {
        "type": "Polygon",
        "coordinates": [
          [
            [
              -82.7547537295665,
              27.97799249360217
            ],
            [
              -82.75614813547134,
              27.978003248146045
            ],
            [
              -82.75614620223287,
              27.976861782763024
            ],
            [
              -82.75475179231486,
              27.97685958528882
            ],
            [
              -82.7547537295665,
              27.97799249360217
            ]
          ]
        ]
      },
      "properties": {
        "OBJECTID": 819146,
        "PARCELID": "122915558360010004",
        "STRAP": "152912558360010004",
        "SITE_ADDRESS": "1212 N HERCULES AVE",
        "SITE_CITY": "CLEARWATER",
        "SITE_STATE": "FL",
        "SITE_ZIP": "33765",
        "LAND_USE_CODE": "41"
      }
    },
    {
      "type": "Feature",
      "id": 826113,
      "geometry": {
        "type": "Polygon",
        "coordinates": [
          [
            [
              -82.7589357286905,
              27.981342404712652
            ],
            [
              -82.75984500202328,
              27.98134572733972
            ],
            [
              -82.76079247787965,
              27.981349179176885
            ],
            [
              -82.76079370177922,
              27.981349185943248
            ],
            [
              -82.76079469276054,
              27.980805889420356
            ],
            [
              -82.76079589623872,
              27.980145126234373
            ],
            [
              -82.76079279754136,
              27.980145058548995
            ],
            [
              -82.76079097121662,
              27.979979833937573
            ],
            [
              -82.76089290593065,
              27.979980195965013
            ],
            [
              -82.76039869242393,
              27.979027926920267
            ],
            [
              -82.76037748381002,
              27.978987052655132
            ],
            [
              -82.75888922677632,
              27.978978961512837
            ],
            [
              -82.75888926502924,
              27.979018986361066
            ],
            [
              -82.75889095992946,
              27.980796951183624
            ],
            [
              -82.75889138769155,
              27.981243126813393
            ],
            [
              -82.75888898227618,
              27.981342095028733
            ],
            [
              -82.7589357286905,
              27.981342404712652
            ]
          ]
        ]
      },
      "properties": {
        "OBJECTID": 826113,
        "PARCELID": "122915701822001200",
        "STRAP": "152912701822001200",
        "SITE_ADDRESS": "1490 N ARCTURAS AVE",
        "SITE_CITY": "CLEARWATER",
        "SITE_STATE": "FL",
        "SITE_ZIP": "33765",
        "LAND_USE_CODE": "89"
      }
    },
    {
      "type": "Feature",
      "id": 926768,
      "geometry": {
        "type": "Polygon",
        "coordinates": [
          [
            [
              -82.7567373649482,
              27.978969208582367
            ],
            [
              -82.75655147849488,
              27.97896831890333
            ],
            [
              -82.75655216293531,
              27.97945239244266
            ],
            [
              -82.75673805123519,
              27.97945328209885
            ],
            [
              -82.75717817514317,
              27.97945575919649
            ],
            [
              -82.75717817273471,
              27.979454977748652
            ],
            [
              -82.75717756926795,
              27.978970964265784
            ],
            [
              -82.75717240445925,
              27.978970943966097
            ],
            [
              -82.7567373649482,
              27.978969208582367
            ]
          ]
        ]
      },
      "properties": {
        "OBJECTID": 926768,
        "PARCELID": "122915382500004000",
        "STRAP": "152912382500004000",
        "SITE_ADDRESS": "1955 CARROLL ST",
        "SITE_CITY": "CLEARWATER",
        "SITE_STATE": "FL",
        "SITE_ZIP": "33765",
        "LAND_USE_CODE": "48"
      }
    },
    {
      "type": "Feature",
      "id": 987691,
      "geometry": {
        "type": "Polygon",
        "coordinates": [
          [
            [
              -82.75772102334831,
              27.979499791273955
            ],
            [
              -82.75870365684634,
              27.97950449433804
            ],
            [
              -82.758703329901,
              27.978978613521033
            ],
            [
              -82.75802235580676,
              27.978975202816446
            ],
            [
              -82.75772027270048,
              27.978973688028212
            ],
            [
              -82.75772027511275,
              27.978974469476015
            ],
            [
              -82.75772100424146,
              27.979458808891458
            ],
            [
              -82.75772102334831,
              27.979499791273955
            ]
          ]
        ]
      },
      "properties": {
        "OBJECTID": 987691,
        "PARCELID": "122915382500010013",
        "STRAP": "152912382500010013",
        "SITE_ADDRESS": "1301 N ARCTURAS AVE",
        "SITE_CITY": "CLEARWATER",
        "SITE_STATE": "FL",
        "SITE_ZIP": "33765",
        "LAND_USE_CODE": "41"
      }
    },
    {
      "type": "Feature",
      "id": 994502,
      "geometry": {
        "type": "Polygon",
        "coordinates": [
          [
            [
              -82.75475411899663,
              27.976694444987018
            ],
            [
              -82.75655292097325,
              27.976696548717708
            ],
            [
              -82.75655165804125,
              27.976407756015053
            ],
            [
              -82.75654931279976,
              27.975871196312237
            ],
            [
              -82.7552014772013,
              27.975867615494018
            ],
            [
              -82.7547525743715,
              27.975866420801626
            ],
            [
              -82.75475251226408,
              27.976485093365625
            ],
            [
              -82.75475411899663,
              27.976694444987018
            ]
          ]
        ]
      },
      "properties": {
        "OBJECTID": 994502,
        "PARCELID": "122915558360010003",
        "STRAP": "152912558360010003",
        "SITE_ADDRESS": "1180 N HERCULES AVE",
        "SITE_CITY": null,
        "SITE_STATE": null,
        "SITE_ZIP": null,
        "LAND_USE_CODE": "91"
      }
    },
    {
      "type": "Feature",
      "id": 1008878,
      "geometry": {
        "type": "Polygon",
        "coordinates": [
          [
            [
              -82.7567373649482,
              27.978969208582367
            ],
            [
              -82.75717240445925,
              27.978970943966097
            ],
            [
              -82.75717209708081,
              27.978834660095814
            ],
            [
              -82.75717209143869,
              27.978832978992752
            ],
            [
              -82.75717165902049,
              27.978641240940295
            ],
            [
              -82.75717023164539,
              27.97800954478365
            ],
            [
              -82.75614813547134,
              27.978003248146045
            ],
            [
              -82.7547537295665,
              27.97799249360217
            ],
            [
              -82.75475516793522,
              27.978817747810655
            ],
            [
              -82.75475573864662,
              27.978955354076604
            ],
            [
              -82.75506438359129,
              27.978961176199835
            ],
            [
              -82.75525027313817,
              27.978962070579314
            ],
            [
              -82.75543616064904,
              27.978962964718715
            ],
            [
              -82.75562204712145,
              27.978963855905366
            ],
            [
              -82.75580793462598,
              27.978964749542225
            ],
            [
              -82.7559938180679,
              27.97896564385247
            ],
            [
              -82.75617970554092,
              27.97896653337735
            ],
            [
              -82.75630494454929,
              27.97896713707745
            ],
            [
              -82.7563655920006,
              27.97896742355896
            ],
            [
              -82.75655147849488,
              27.97896831890333
            ],
            [
              -82.7567373649482,
              27.978969208582367
            ]
          ]
        ]
      },
      "properties": {
        "OBJECTID": 1008878,
        "PARCELID": "122915558360010002",
        "STRAP": "152912558360010002",
        "SITE_ADDRESS": "1310 N HERCULES AVE",
        "SITE_CITY": "CLEARWATER",
        "SITE_STATE": "FL",
        "SITE_ZIP": "33765",
        "LAND_USE_CODE": "42"
      }
    },
    {
      "type": "Feature",
      "id": 1033899,
      "geometry": {
        "type": "Polygon",
        "coordinates": [
          [
            [
              -82.76037748381002,
              27.978987052655132
            ],
            [
              -82.76078102310399,
              27.978989244013167
            ],
            [
              -82.76078005765012,
              27.978851663525823
            ],
            [
              -82.76284037915846,
              27.978860769019647
            ],
            [
              -82.76284138481667,
              27.975335390834854
            ],
            [
              -82.76284653115917,
              27.975335411928874
            ],
            [
              -82.76285516850452,
              27.975119960539292
            ],
            [
              -82.7628704786984,
              27.97490480150949
            ],
            [
              -82.76289245064727,
              27.97469009732773
            ],
            [
              -82.76291018107958,
              27.974528570448523
            ],
            [
              -82.76292400222215,
              27.974366743093594
            ],
            [
              -82.7629339095375,
              27.9742046901865
            ],
            [
              -82.76126896514138,
              27.974214449216873
            ],
            [
              -82.76125110850967,
              27.973003007736242
            ],
            [
              -82.7612493155063,
              27.972880073745337
            ],
            [
              -82.76123411956436,
              27.97182413988121
            ],
            [
              -82.7587842578893,
              27.971829364735473
            ],
            [
              -82.75658930948161,
              27.971833306817093
            ],
            [
              -82.75847007358315,
              27.975311594538216
            ],
            [
              -82.76030587067412,
              27.97884906494777
            ],
            [
              -82.76037748381002,
              27.978987052655132
            ]
          ]
        ]
      },
      "properties": {
        "OBJECTID": 1033899,
        "PARCELID": "122915000003200100",
        "STRAP": "152912000003200100",
        "SITE_ADDRESS": "1875 AIRPORT DR",
        "SITE_CITY": "CLEARWATER",
        "SITE_STATE": "FL",
        "SITE_ZIP": "33765",
        "LAND_USE_CODE": "38"
      }
    },
    {
      "type": "Feature",
      "id": 1082609,
      "geometry": {
        "type": "Polygon",
        "coordinates": [
          [
            [
              -82.75655292097325,
              27.976696548717708
            ],
            [
              -82.75726588469118,
              27.976697202785147
            ],
            [
              -82.75726589570739,
              27.97669616047517
            ],
            [
              -82.75726850169329,
              27.97643417518024
            ],
            [
              -82.75727458869082,
              27.976173893358027
            ],
            [
              -82.75715048965313,
              27.975892121419786
            ],
            [
              -82.75695077307378,
              27.975915012956065
            ],
            [
              -82.75681408596951,
              27.97569925953015
            ],
            [
              -82.75659395449682,
              27.97580036749874
            ],
            [
              -82.7568607077345,
              27.976406052447803
            ],
            [
              -82.75655165804125,
              27.976407756015053
            ],
            [
              -82.75655292097325,
              27.976696548717708
            ]
          ]
        ]
      },
      "properties": {
        "OBJECTID": 1082609,
        "PARCELID": "122915558360010006",
        "STRAP": "152912558360010006",
        "SITE_ADDRESS": "1000 N HERCULES AVE",
        "SITE_CITY": "CLEARWATER",
        "SITE_STATE": "FL",
        "SITE_ZIP": "33765",
        "LAND_USE_CODE": "20"
      }
    },
    {
      "type": "Feature",
      "id": 1099919,
      "geometry": {
        "type": "Polygon",
        "coordinates": [
          [
            [
              -82.75599450001788,
              27.9794497174435
            ],
            [
              -82.75618038730461,
              27.979450606956764
            ],
            [
              -82.75636627562976,
              27.979451499822567
            ],
            [
              -82.75655216293531,
              27.97945239244266
            ],
            [
              -82.75655147849488,
              27.97896831890333
            ],
            [
              -82.7563655920006,
              27.97896742355896
            ],
            [
              -82.75630494454929,
              27.97896713707745
            ],
            [
              -82.75617970554092,
              27.97896653337735
            ],
            [
              -82.7559938180679,
              27.97896564385247
            ],
            [
              -82.75599450001788,
              27.9794497174435
            ]
          ]
        ]
      },
      "properties": {
        "OBJECTID": 1099919,
        "PARCELID": "122915382500003700",
        "STRAP": "152912382500003700",
        "SITE_ADDRESS": "1965 CARROLL ST",
        "SITE_CITY": "CLEARWATER",
        "SITE_STATE": "FL",
        "SITE_ZIP": "33765",
        "LAND_USE_CODE": "41"
      }
    },
    {
      "type": "Feature",
      "id": 1101186,
      "geometry": {
        "type": "Polygon",
        "coordinates": [
          [
            [
              -82.7558086126965,
              27.979448823167232
            ],
            [
              -82.75599450001788,
              27.9794497174435
            ],
            [
              -82.7559938180679,
              27.97896564385247
            ],
            [
              -82.75580793462598,
              27.978964749542225
            ],
            [
              -82.7558086126965,
              27.979448823167232
            ]
          ]
        ]
      },
      "properties": {
        "OBJECTID": 1101186,
        "PARCELID": "122915382500003600",
        "STRAP": "152912382500003600",
        "SITE_ADDRESS": "1975 CARROLL ST",
        "SITE_CITY": "CLEARWATER",
        "SITE_STATE": "FL",
        "SITE_ZIP": "33765",
        "LAND_USE_CODE": "48"
      }
    }
  ]
}
