{
  "type": "FeatureCollection",
  "features": [
    {
      "type": "Feature",
      "id": 10563,
      "geometry": {
        "type": "Polygon",
        "coordinates": [
          [
            [
              -82.75673523146624,
              27.97108078037189
            ],
            [
              -82.7565937404558,
              27.971831950862352
            ],
            [
              -82.76146248814526,
              27.98086254257761
            ],
            [
              -82.76143542344877,
              27.980862282718064
            ],
            [
              -82.76194082185964,
              27.9818421428448
            ],
            [
              -82.76283838081694,
              27.981845265066024
            ],
            [
              -82.76299451098997,
              27.981845537900245
            ],
            [
              -82.76300268417977,
              27.975391791455163
            ],
            [
              -82.76301642328303,
              27.9750399259833
            ],
            [
              -82.76305802126566,
              27.974643678519364
            ],
            [
              -82.76309020601647,
              27.974208595162334
            ],
            [
              -82.7629680414549,
              27.974209627356085
            ],
            [
              -82.76127218621889,
              27.97421953618792
            ],
            [
              -82.76123733852702,
              27.971829225377213
            ],
            [
              -82.76123648449958,
              27.97174853741125
            ],
            [
              -82.75870077584848,
              27.971748390079696
            ],
            [
              -82.75869098029153,
              27.970821974822623
            ],
            [
              -82.75803581539088,
              27.97082230768737
            ],
            [
              -82.75728301430122,
              27.970963156765993
            ],
            [
              -82.75673523146624,
              27.97108078037189
            ]
          ]
        ]
      },
      "properties": {
        "OBJECTID": 10563,
        "ZONING": "OS/R",
        "ZONING_DESC": "Open Space/Recreation",
        "SPECIAL": null
      }
    },
    {
      "type": "Feature",
      "id": 10793,
      "geometry": {
        "type": "Polygon",
        "coordinates": [
          [
            [
              -82.74627860128551,
              27.97960844756066
            ],
            [
              -82.74643502843095,
              27.979652277535283
            ],
            [
              -82.75035331181434,
              27.980696309842664
            ],
            [
              -82.75044510384775,
              27.9807213419568
            ],
            [
              -82.75092396794415,
              27.98084907301257
            ],
            [
              -82.7509232892548,
              27.98034989769531
            ],
            [
              -82.75044325176196,
              27.980350422081774
            ],
            [
              -82.7504034777621,
              27.98035055063248
            ],
            [
              -82.75039357643428,
              27.979027153722505
            ],
            [
              -82.75053299257053,
              27.979026329964967
            ],
            [
              -82.75079484302476,
              27.979027518853723
            ],
            [
              -82.75079415543934,
              27.97885352278539
            ],
            [
              -82.75079254343362,
              27.97833085891782
            ],
            [
              -82.75115074844132,
              27.978332596868473
            ],
            [
              -82.75115387130374,
              27.978855360743204
            ],
            [
              -82.75091966401123,
              27.978854161504458
            ],
            [
              -82.75092025577246,
              27.97902808860906
            ],
            [
              -82.75092249253233,
              27.979578331180054
            ],
            [
              -82.75227134516105,
              27.97958502214056
            ],
            [
              -82.75226858528525,
              27.97903420773199
            ],
            [
              -82.75179578260669,
              27.979032061338266
            ],
            [
              -82.75179584991588,
              27.978858247964745
            ],
            [
              -82.75259110743019,
              27.97886448073386
            ],
            [
              -82.75259246351402,
              27.977990904528465
            ],
            [
              -82.75259269924099,
              27.977839628092642
            ],
            [
              -82.75372530490048,
              27.97784099896566
            ],
            [
              -82.75372585937815,
              27.97799605563681
            ],
            [
              -82.75372669563195,
              27.978470170048023
            ],
            [
              -82.75445019597854,
              27.978474634885846
            ],
            [
              -82.75444966398587,
              27.978001024188305
            ],
            [
              -82.75398273693656,
              27.97799668099493
            ],
            [
              -82.75398400442066,
              27.9777807956811
            ],
            [
              -82.75444941572984,
              27.97777881609278
            ],
            [
              -82.75444843102694,
              27.976900364584008
            ],
            [
              -82.7544482117512,
              27.976735338368094
            ],
            [
              -82.75444774809256,
              27.975871698259834
            ],
            [
              -82.75475579460837,
              27.975871507409884
            ],
            [
              -82.75475733925671,
              27.976699531797802
            ],
            [
              -82.75475500954214,
              27.976864673961465
            ],
            [
              -82.75475838622735,
              27.97882283605428
            ],
            [
              -82.75475895693016,
              27.978960440549162
            ],
            [
              -82.7552534885228,
              27.97896715796191
            ],
            [
              -82.75525416818833,
              27.979451232637004
            ],
            [
              -82.75581183258328,
              27.97945409381627
            ],
            [
              -82.7558111521932,
              27.978969835097534
            ],
            [
              -82.7559970377158,
              27.978970728490477
            ],
            [
              -82.75599771935795,
              27.979455047649125
            ],
            [
              -82.75655538068686,
              27.97945790853685
            ],
            [
              -82.7565547013481,
              27.978973402610798
            ],
            [
              -82.75717571584143,
              27.97897645219558
            ],
            [
              -82.75717487799834,
              27.97864632728373
            ],
            [
              -82.75802529912505,
              27.978647020071065
            ],
            [
              -82.75802383393705,
              27.976869799056356
            ],
            [
              -82.75802477665421,
              27.97678568748942
            ],
            [
              -82.7565569549266,
              27.976784377519735
            ],
            [
              -82.75655614038419,
              27.976701438778637
            ],
            [
              -82.75655253050408,
              27.97587628199719
            ],
            [
              -82.75553429055175,
              27.975873246673032
            ],
            [
              -82.75553730419422,
              27.975396525742777
            ],
            [
              -82.75475600683066,
              27.97539456810115
            ],
            [
              -82.75459987958729,
              27.975395154759315
            ],
            [
              -82.75459973613795,
              27.97529625728811
            ],
            [
              -82.75355412255317,
              27.975290700761985
            ],
            [
              -82.75146254035627,
              27.975279560383512
            ],
            [
              -82.75146260852318,
              27.975292036337006
            ],
            [
              -82.75042118636617,
              27.975286168698247
            ],
            [
              -82.75042109058167,
              27.975272328492306
            ],
            [
              -82.74984260435266,
              27.97526900818918
            ],
            [
              -82.74984225367774,
              27.975269007393404
            ],
            [
              -82.74984290047715,
              27.97535136694637
            ],
            [
              -82.7493739394293,
              27.9753487516018
            ],
            [
              -82.74937341757388,
              27.97526838833172
            ],
            [
              -82.74833148730447,
              27.9752628216624
            ],
            [
              -82.74728332276764,
              27.975257189822376
            ],
            [
              -82.74624451177259,
              27.975251609346845
            ],
            [
              -82.74619339564508,
              27.975251949777938
            ],
            [
              -82.74621076807509,
              27.977300958254812
            ],
            [
              -82.74626188121199,
              27.97730004300293
            ],
            [
              -82.74627562755653,
              27.978920696463778
            ],
            [
              -82.74627860128551,
              27.97960844756066
            ]
          ],
          [
            [
              -82.74887110767513,
              27.978183015911135
            ],
            [
              -82.74835236281207,
              27.97818061772872
            ],
            [
              -82.74834411447644,
              27.977094581490622
            ],
            [
              -82.74938476914346,
              27.977099959851707
            ],
            [
              -82.74938690048046,
              27.977444647118382
            ],
            [
              -82.74886469024264,
              27.977444047388104
            ],
            [
              -82.74887110767513,
              27.978183015911135
            ]
          ],
          [
            [
              -82.75277127262014,
              27.975394881132896
            ],
            [
              -82.75382769213681,
              27.97540016961893
            ],
            [
              -82.75382724784181,
              27.97595031140862
            ],
            [
              -82.75277287319406,
              27.975945033462562
            ],
            [
              -82.75277127262014,
              27.975394881132896
            ]
          ],
          [
            [
              -82.75196838532274,
              27.975941269375735
            ],
            [
              -82.75196708900339,
              27.975719028065267
            ],
            [
              -82.75132215405819,
              27.975717339646906
            ],
            [
              -82.75131924531992,
              27.975387036104614
            ],
            [
              -82.75258518688496,
              27.975394286686264
            ],
            [
              -82.75258745819085,
              27.975945583190992
            ],
            [
              -82.75196838532274,
              27.975941269375735
            ]
          ],
          [
            [
              -82.7504341937769,
              27.978109094121308
            ],
            [
              -82.75043147097732,
              27.977559024593226
            ],
            [
              -82.75114615282716,
              27.977562473050472
            ],
            [
              -82.75114943742469,
              27.978112562005307
            ],
            [
              -82.7504341937769,
              27.978109094121308
            ]
          ],
          [
            [
              -82.75113809088985,
              27.976212295701092
            ],
            [
              -82.75042477767,
              27.97620704567679
            ],
            [
              -82.75042341235235,
              27.975931055242057
            ],
            [
              -82.7511364498144,
              27.97593740410045
            ],
            [
              -82.75113809088985,
              27.976212295701092
            ]
          ]
        ]
      },
      "properties": {
        "OBJECTID": 10793,
        "ZONING": "IRT",
        "ZONING_DESC": "Industrial Research and Technology",
        "SPECIAL": null
      }
    },
    {
      "type": "Feature",
      "id": 10818,
      "geometry": {
        "type": "Polygon",
        "coordinates": [
          [
            [
              -82.75553429055175,
              27.975873246673032
            ],
            [
              -82.75655253050408,
              27.97587628199719
            ],
            [
              -82.75655614038419,
              27.976701438778637
            ],
            [
              -82.7565569549266,
              27.976784377519735
            ],
            [
              -82.75802477665421,
              27.97678568748942
            ],
            [
              -82.75802383393705,
              27.976869799056356
            ],
            [
              -82.75802529912505,
              27.978647020071065
            ],
            [
              -82.75717487799834,
              27.97864632728373
            ],
            [
              -82.75717571584143,
              27.97897645219558
            ],
            [
              -82.75718078969167,
              27.978976401707765
            ],
            [
              -82.75870655138557,
              27.97898370260967
            ],
            [
              -82.75880318175228,
              27.9789838409846
            ],
            [
              -82.75880337691747,
              27.980116592150367
            ],
            [
              -82.7587068026197,
              27.98011662132332
            ],
            [
              -82.75870690959204,
              27.980600737645485
            ],
            [
              -82.75870679772858,
              27.98076528452996
            ],
            [
              -82.75870670713539,
              27.981346935619833
            ],
            [
              -82.75880063464042,
              27.98134706090131
            ],
            [
              -82.75889220181527,
              27.981347180190937
            ],
            [
              -82.760796921879,
              27.981354271968268
            ],
            [
              -82.76079604253634,
              27.981838151688784
            ],
            [
              -82.76089042727459,
              27.98183848235994
            ],
            [
              -82.76194082185964,
              27.9818421428448
            ],
            [
              -82.76143542344877,
              27.980862282718064
            ],
            [
              -82.76146248814526,
              27.98086254257761
            ],
            [
              -82.7565937404558,
              27.971831950862352
            ],
            [
              -82.75673523146624,
              27.97108078037189
            ],
            [
              -82.7545938916816,
              27.971086949268393
            ],
            [
              -82.7545943795107,
              27.971641148754156
            ],
            [
              -82.75459721076162,
              27.973464597037815
            ],
            [
              -82.75459973613795,
              27.97529625728811
            ],
            [
              -82.75459987958729,
              27.975395154759315
            ],
            [
              -82.75475600683066,
              27.97539456810115
            ],
            [
              -82.75553730419422,
              27.975396525742777
            ],
            [
              -82.75553429055175,
              27.975873246673032
            ]
          ]
        ]
      },
      "properties": {
        "OBJECTID": 10818,
        "ZONING": "I",
        "ZONING_DESC": "Institutional",
        "SPECIAL": null
      }
    },
    {
      "type": "Feature",
      "id": 10835,
      "geometry": {
        "type": "Polygon",
        "coordinates": [
          [
            [
              -82.75718078969167,
              27.978976401707765
            ],
            [
              -82.757181392993,
              27.979461117361808
            ],
            [
              -82.75772422239149,
              27.979463896330934
            ],
            [
              -82.75772375121049,
              27.9795901969565
            ],
            [
              -82.75782200676393,
              27.979591834035812
            ],
            [
              -82.75782028039389,
              27.98011249521326
            ],
            [
              -82.7587068026197,
              27.98011662132332
            ],
            [
              -82.75880337691747,
              27.980116592150367
            ],
            [
              -82.75880318175228,
              27.9789838409846
            ],
            [
              -82.75870655138557,
              27.97898370260967
            ],
            [
              -82.75718078969167,
              27.978976401707765
            ]
          ]
        ]
      },
      "properties": {
        "OBJECTID": 10835,
        "ZONING": "IRT",
        "ZONING_DESC": "Industrial Research and Technology",
        "SPECIAL": null
      }
    }
  ]
}
